COSMOS 2251 DEB         
1 35067U 93036AHW 17345.35789417  .00001367  00000-0  27315-3 0  9994
2 35067  73.7547 333.7677 0066200  98.5867 330.7977 14.61613541456338
